QIANFAN-89              
1 63175U 25046S   25254.88836078  .00000145  00000+0  20581-3 0  9993
2 63175  88.9848 329.5238 0017157  38.8233 321.4148 13.50977633 35004
QIANFAN-90              
1 63176U 25046T   25254.91717808  .00000146  00000+0  20697-3 0  9996
2 63176  88.9848 329.4931 0014056  38.6624 321.5530 13.50976673 35022
